STARLINK-30483          
1 57914U 23147B   26068.32690399  .00017081  00000+0  63041-3 0  9999
2 57914  42.9991 181.6730 0001142 141.0292 219.0642 15.27496247138255
YAOGAN-43 01G           
1 60464U 24148G   26068.44348481  .00010133  00000+0  35873-3 0  9993
2 60464  35.0006  62.0013 0007382 306.3543  53.6492 15.28332833 87004
